STARLINK-3049           
1 49436U 21104AE  26068.70272602  .00000697  00000+0  61863-4 0  9991
2 49436  53.2190 209.0644 0001396  93.1072 267.0079 15.08838945238919
KUIPER-00148            
1 65769U 25217H   26068.27522507  .00015783  00000+0  98730-3 0  9995
2 65769  51.8794  26.5769 0008108 351.8096   8.2745 15.09536529 25078
